STARLINK-36409          
1 67406U 26005C   26036.75002315 -.02081181  00000+0 -48023-1 0  9996
2 67406  43.0003  61.1037 0001121 274.6454 318.1369 15.45331747  5051
STARLINK-36510          
1 67407U 26005D   26036.51280733  .00113396  00000+0  19081-2 0  9996
2 67407  43.0003  62.4582 0001368 260.0892  99.9814 15.50619785  3749
STARLINK-36509          
1 67408U 26005E   26036.51246338  .00089613  00000+0  15141-2 0  9997
2 67408  42.9999  62.4555 0001360 256.6807 103.3902 15.50613068  3736
STARLINK-36507          
1 67409U 26005F   26036.44770518  .00062477  00000+0  10610-2 0  9997
2 67409  43.0001  62.8298 0001357 267.0774  92.9930 15.50611903  3736
STARLINK-36508          
1 67410U 26005G   26036.75002315 -.00137523  00000+0 -33383-2 0  9995
2 67410  43.0002  61.2027 0001364 267.8888 283.6494 15.40755535  5054
STARLINK-36503          
1 67411U 26005H   26036.51143405  .00095374  00000+0  16097-2 0  9994
2 67411  42.9999  62.4470 0001371 260.4653  99.6052 15.50615520  3749
STARLINK-36446          
1 67412U 26005J   26036.18911721 -.00242506  00000+0 -43537-2 0  9994
2 67412  42.9999  64.3297 0000465 298.0126  62.0687 15.49952014  3695
STARLINK-36442          
1 67413U 26005K   26036.51074889  .00120328  00000+0  20222-2 0  9998
2 67413  43.0001  62.4408 0001198 266.8220  93.2503 15.50624599  3742
STARLINK-36506          
1 67414U 26005L   26036.66668981 -.00208556  00000+0 -36308-2 0  9991
2 67414  43.0001  61.5249 0001520 273.5265 239.9338 15.50684844  5048
STARLINK-36468          
1 67415U 26005M   26036.51006260  .00109548  00000+0  18444-2 0  9992
2 67415  42.9999  62.4358 0001407 258.6701 101.4001 15.50620170  3744
STARLINK-36487          
1 67416U 26005N   26036.75002315  .00008516  00000+0  21106-3 0  9999
2 67416  43.0004  61.1405 0001427 274.8196 301.6047 15.40674709  5059
STARLINK-36374          
1 67417U 26005P   26036.50937629  .00093176  00000+0  15733-2 0  9992
2 67417  42.9998  62.4298 0001442 253.0104 107.0598 15.50612502  3746
